[{"OBJECT_NAME":"STARLINK-5387","OBJECT_ID":"2022-177Y","EPOCH":"2026-03-09T22:00:01.999584","MEAN_MOTION":15.16803473,"ECCENTRICITY":0.00020851,"INCLINATION":43.0001,"RA_OF_ASC_NODE":131.0823,"ARG_OF_PERICENTER":258.7252,"MEAN_ANOMALY":19.3331,"EPHEMERIS_TYPE":0,"CLASSIFICATION_TYPE":"U","NORAD_CAT_ID":54842,"ELEMENT_SET_NO":999,"REV_AT_EPOCH":578,"BSTAR":0.060899365,"MEAN_MOTION_DOT":0.01322592,"MEAN_MOTION_DDOT":0},{"OBJECT_NAME":"TIANPING-3A 02","OBJECT_ID":"2025-068A","EPOCH":"2026-03-09T20:54:34.712640","MEAN_MOTION":14.85842181,"ECCENTRICITY":0.02320093,"INCLINATION":43.0011,"RA_OF_ASC_NODE":213.5906,"ARG_OF_PERICENTER":358.6421,"MEAN_ANOMALY":1.3764,"EPHEMERIS_TYPE":0,"CLASSIFICATION_TYPE":"U","NORAD_CAT_ID":63432,"ELEMENT_SET_NO":999,"REV_AT_EPOCH":5060,"BSTAR":0.00038259976,"MEAN_MOTION_DOT":5.293e-5,"MEAN_MOTION_DDOT":0}]
